<?xml version="1.0" encoding="UTF-8"?>
<kml xmlns="http://www.opengis.net/kml/2.2"><Document>
<Placemark><name>plot</name><Polygon><outerBoundaryIs><LinearRing><coordinates>
77.59,12.97,0 77.60,12.97,0 77.60,12.98,0 77.59,12.98,0 77.59,12.97,0
</coordinates></LinearRing></outerBoundaryIs></Polygon></Placemark>
<Placemark><name>road</name><LineString><coordinates>77.59,12.97 77.60,12.97</coordinates></LineString></Placemark>
<Placemark><name>well</name><Point><coordinates>77.595,12.975</coordinates></Point></Placemark>
</Document></kml>
